<?xml version="1.0"?>
<gpx version="1.1" creator="qtVlm" xmlns:xsi="http://www.w3.org/2001/XMLSchema-instance" xmlns="http://www.topografix.com/GPX/1/1" xmlns:gpxx="http://www.garmin.com/xmlschemas/GpxExtensions/v3" xsi:schemaLocation="http://www.topografix.com/GPX/1/1 http://www.topografix.com/GPX/1/1/gpx.xsd" xmlns:qtVlm="http://www.meltemus.com">
<rte>
<name>Petsamo</name>
<rtept lat="36.2377693384" lon="-122.1082365655">
<name>POI_0100</name>
<type>WPT</type>
<sym>square</sym>
</rtept>
<rtept lat="33.9574333333" lon="-120.6575833333">
<name>POI_0101</name>
<type>WPT</type>
<sym>square</sym>
</rtept>
<rtept lat="29.2161841065" lon="-117.8214489414">
<name>POI_0200</name>
<type>WPT</type>
<sym>square</sym>
</rtept>
<rtept lat="10.8625773366" lon="-109.4798427203">
<name>POI_030</name>
<type>WPT</type>
<sym>square</sym>
</rtept>
<rtept lat="10.2164017615" lon="-109.1761568039">
<name>STOP 1_0210</name>
<type>WPT</type>
<sym>square</sym>
</rtept>
</rte>
</gpx>
